IRIDIUM 171             
1 43929U 19002H   25255.83146971  .00000043  00000+0  83142-5 0  9996
2 43929  86.3941 109.8228 0002395  82.0577 278.0891 14.34216838349201
IRIDIUM 170             
1 43930U 19002J   25255.85693449  .00000596  00000+0  90610-4 0  9997
2 43930  86.6057 109.5475 0002438  86.0613 274.0883 14.72254412358454
IRIDIUM 167             
1 43931U 19002K   25255.89489617  .00000008  00000+0 -42494-5 0  9999
2 43931  86.3933 109.5404 0002580  85.2465 274.9025 14.34217671349216
IRIDIUM 181             
1 56726U 23068S   25255.71956180  .00000316  00000+0  87994-4 0  9991
2 56726  86.4583 172.7128 0002416  70.3465 289.7997 14.43311312122412
IRIDIUM 177             
1 56727U 23068T   25255.81799435  .00000286  00000+0  34149-4 0  9991
2 56727  86.1924 100.5305 0002499  82.3818 277.7687 14.80226508125331
IRIDIUM 174             
1 56728U 23068U   25255.84457312  .00000508  00000+0  76655-4 0  9995
2 56728  86.6067 109.6722 0002069  94.7697 265.3756 14.72245182125210
IRIDIUM 178             
1 56729U 23068V   25255.94232861  .00000851  00000+0  10860-3 0  9993
2 56729  86.6580 141.2359 0002514  88.1557 271.9952 14.80224729125355
IRIDIUM 179             
1 56730U 23068W   25255.66655353  .00001001  00000+0  12835-3 0  9991
2 56730  86.6838 149.4873 0002902  85.4872 274.6681 14.80227097125311
